{
  "type": "FeatureCollection",
  "features": [
    {
      "type": "Feature",
      "properties": {
        "OBJECT_NAME": "BEIDOU-2 IGSO-1 (C06)",
        "OBJECT_ID": "2010-036A",
        "EPOCH": "2025-11-28T22:59:04.531776",
        "MEAN_MOTION": 1.00280069,
        "ECCENTRICITY": 0.00512455,
        "INCLINATION": 54.2834,
        "RA_OF_ASC_NODE": 164.7738,
        "ARG_OF_PERICENTER": 215.7,
        "MEAN_ANOMALY": 140.0675,
        "EPHEMERIS_TYPE": 0,
        "CLASSIFICATION_TYPE": "U",
        "NORAD_CAT_ID": 36828,
        "ELEMENT_SET_NO": 999,
        "REV_AT_EPOCH": 5608,
        "BSTAR": 0,
        "MEAN_MOTION_DOT": -3.3e-07,
        "MEAN_MOTION_DDOT": 0,
        "norad_id": 36828,
        "name": "BEIDOU-2 IGSO-1 (C06)",
        "group": "beidou",
        "longitude_deg": NaN,
        "latitude_deg": NaN,
        "alt_km": NaN,
        "orbit_class": "HEO",
        "timestamp": "2025-11-30T06:54:03.074542+00:00"
      },
      "geometry": {
        "type": "Point",
        "coordinates": [
          NaN,
          NaN
        ]
      }
    },
    {
      "type": "Feature",
      "properties": {
        "OBJECT_NAME": "BEIDOU-2 G4 (C04)",
        "OBJECT_ID": "2010-057A",
        "EPOCH": "2025-11-29T19:46:13.101600",
        "MEAN_MOTION": 1.00271745,
        "ECCENTRICITY": 0.001068,
        "INCLINATION": 3.1497,
        "RA_OF_ASC_NODE": 69.9703,
        "ARG_OF_PERICENTER": 187.1585,
        "MEAN_ANOMALY": 268.4639,
        "EPHEMERIS_TYPE": 0,
        "CLASSIFICATION_TYPE": "U",
        "NORAD_CAT_ID": 37210,
        "ELEMENT_SET_NO": 999,
        "REV_AT_EPOCH": 5529,
        "BSTAR": 0,
        "MEAN_MOTION_DOT": -9e-07,
        "MEAN_MOTION_DDOT": 0,
        "norad_id": 37210,
        "name": "BEIDOU-2 G4 (C04)",
        "group": "beidou",
        "longitude_deg": NaN,
        "latitude_deg": NaN,
        "alt_km": NaN,
        "orbit_class": "HEO",
        "timestamp": "2025-11-30T06:54:03.074674+00:00"
      },
      "geometry": {
        "type": "Point",
        "coordinates": [
          NaN,
          NaN
        ]
      }
    },
    {
      "type": "Feature",
      "properties": {
        "OBJECT_NAME": "BEIDOU-2 IGSO-2 (C07)",
        "OBJECT_ID": "2010-068A",
        "EPOCH": "2025-11-29T18:13:27.292224",
        "MEAN_MOTION": 1.00290379,
        "ECCENTRICITY": 0.0049444,
        "INCLINATION": 47.9125,
        "RA_OF_ASC_NODE": 274.3115,
        "ARG_OF_PERICENTER": 216.4564,
        "MEAN_ANOMALY": 318.4665,
        "EPHEMERIS_TYPE": 0,
        "CLASSIFICATION_TYPE": "U",
        "NORAD_CAT_ID": 37256,
        "ELEMENT_SET_NO": 999,
        "REV_AT_EPOCH": 5479,
        "BSTAR": 0,
        "MEAN_MOTION_DOT": -2.21e-06,
        "MEAN_MOTION_DDOT": 0,
        "norad_id": 37256,
        "name": "BEIDOU-2 IGSO-2 (C07)",
        "group": "beidou",
        "longitude_deg": NaN,
        "latitude_deg": NaN,
        "alt_km": NaN,
        "orbit_class": "HEO",
        "timestamp": "2025-11-30T06:54:03.074720+00:00"
      },
      "geometry": {
        "type": "Point",
        "coordinates": [
          NaN,
          NaN
        ]
      }
    },
    {
      "type": "Feature",
      "properties": {
        "OBJECT_NAME": "BEIDOU-2 IGSO-3 (C08)",
        "OBJECT_ID": "2011-013A",
        "EPOCH": "2025-11-29T21:04:05.094336",
        "MEAN_MOTION": 1.00273417,
        "ECCENTRICITY": 0.0035665,
        "INCLINATION": 62.1255,
        "RA_OF_ASC_NODE": 42.0418,
        "ARG_OF_PERICENTER": 186.0158,
        "MEAN_ANOMALY": 264.7363,
        "EPHEMERIS_TYPE": 0,
        "CLASSIFICATION_TYPE": "U",
        "NORAD_CAT_ID": 37384,
        "ELEMENT_SET_NO": 999,
        "REV_AT_EPOCH": 5366,
        "BSTAR": 0,
        "MEAN_MOTION_DOT": -1.94e-06,
        "MEAN_MOTION_DDOT": 0,
        "norad_id": 37384,
        "name": "BEIDOU-2 IGSO-3 (C08)",
        "group": "beidou",
        "longitude_deg": NaN,
        "latitude_deg": NaN,
        "alt_km": NaN,
        "orbit_class": "HEO",
        "timestamp": "2025-11-30T06:54:03.074746+00:00"
      },
      "geometry": {
        "type": "Point",
        "coordinates": [
          NaN,
          NaN
        ]
      }
    },
    {
      "type": "Feature",
      "properties": {
        "OBJECT_NAME": "BEIDOU-2 IGSO-4 (C09)",
        "OBJECT_ID": "2011-038A",
        "EPOCH": "2025-11-28T12:37:32.473920",
        "MEAN_MOTION": 1.00284857,
        "ECCENTRICITY": 0.01486323,
        "INCLINATION": 54.5801,
        "RA_OF_ASC_NODE": 167.4746,
        "ARG_OF_PERICENTER": 230.1967,
        "MEAN_ANOMALY": 313.2933,
        "EPHEMERIS_TYPE": 0,
        "CLASSIFICATION_TYPE": "U",
        "NORAD_CAT_ID": 37763,
        "ELEMENT_SET_NO": 999,
        "REV_AT_EPOCH": 5263,
        "BSTAR": 0,
        "MEAN_MOTION_DOT": 8.5e-07,
        "MEAN_MOTION_DDOT": 0,
        "norad_id": 37763,
        "name": "BEIDOU-2 IGSO-4 (C09)",
        "group": "beidou",
        "longitude_deg": NaN,
        "latitude_deg": NaN,
        "alt_km": NaN,
        "orbit_class": "HEO",
        "timestamp": "2025-11-30T06:54:03.074876+00:00"
      },
      "geometry": {
        "type": "Point",
        "coordinates": [
          NaN,
          NaN
        ]
      }
    },
    {
      "type": "Feature",
      "properties": {
        "OBJECT_NAME": "BEIDOU-2 IGSO-5 (C10)",
        "OBJECT_ID": "2011-073A",
        "EPOCH": "2025-11-29T19:26:52.453248",
        "MEAN_MOTION": 1.00293473,
        "ECCENTRICITY": 0.0110906,
        "INCLINATION": 48.0464,
        "RA_OF_ASC_NODE": 274.019,
        "ARG_OF_PERICENTER": 222.2939,
        "MEAN_ANOMALY": 316.5119,
        "EPHEMERIS_TYPE": 0,
        "CLASSIFICATION_TYPE": "U",
        "NORAD_CAT_ID": 37948,
        "ELEMENT_SET_NO": 999,
        "REV_AT_EPOCH": 5113,
        "BSTAR": 0,
        "MEAN_MOTION_DOT": -1.66e-06,
        "MEAN_MOTION_DDOT": 0,
        "norad_id": 37948,
        "name": "BEIDOU-2 IGSO-5 (C10)",
        "group": "beidou",
        "longitude_deg": NaN,
        "latitude_deg": NaN,
        "alt_km": NaN,
        "orbit_class": "HEO",
        "timestamp": "2025-11-30T06:54:03.075070+00:00"
      },
      "geometry": {
        "type": "Point",
        "coordinates": [
          NaN,
          NaN
        ]
      }
    },
    {
      "type": "Feature",
      "properties": {
        "OBJECT_NAME": "BEIDOU-2 G5 (C05)",
        "OBJECT_ID": "2012-008A",
        "EPOCH": "2025-11-29T21:00:06.024672",
        "MEAN_MOTION": 1.00271522,
        "ECCENTRICITY": 0.0012009,
        "INCLINATION": 3.0743,
        "RA_OF_ASC_NODE": 70.7453,
        "ARG_OF_PERICENTER": 225.2491,
        "MEAN_ANOMALY": 146.7458,
        "EPHEMERIS_TYPE": 0,
        "CLASSIFICATION_TYPE": "U",
        "NORAD_CAT_ID": 38091,
        "ELEMENT_SET_NO": 999,
        "REV_AT_EPOCH": 5037,
        "BSTAR": 0,
        "MEAN_MOTION_DOT": 7.9e-07,
        "MEAN_MOTION_DDOT": 0,
        "norad_id": 38091,
        "name": "BEIDOU-2 G5 (C05)",
        "group": "beidou",
        "longitude_deg": NaN,
        "latitude_deg": NaN,
        "alt_km": NaN,
        "orbit_class": "HEO",
        "timestamp": "2025-11-30T06:54:03.075177+00:00"
      },
      "geometry": {
        "type": "Point",
        "coordinates": [
          NaN,
          NaN
        ]
      }
    },
    {
      "type": "Feature",
      "properties": {
        "OBJECT_NAME": "BEIDOU-2 M3 (C11)",
        "OBJECT_ID": "2012-018A",
        "EPOCH": "2025-11-27T07:01:03.379872",
        "MEAN_MOTION": 1.86229829,
        "ECCENTRICITY": 0.00246173,
        "INCLINATION": 55.9334,
        "RA_OF_ASC_NODE": 311.6771,
        "ARG_OF_PERICENTER": 273.0171,
        "MEAN_ANOMALY": 86.7042,
        "EPHEMERIS_TYPE": 0,
        "CLASSIFICATION_TYPE": "U",
        "NORAD_CAT_ID": 38250,
        "ELEMENT_SET_NO": 999,
        "REV_AT_EPOCH": 9218,
        "BSTAR": 0,
        "MEAN_MOTION_DOT": -3.9e-07,
        "MEAN_MOTION_DDOT": 0,
        "norad_id": 38250,
        "name": "BEIDOU-2 M3 (C11)",
        "group": "beidou",
        "longitude_deg": NaN,
        "latitude_deg": NaN,
        "alt_km": NaN,
        "orbit_class": "HEO",
        "timestamp": "2025-11-30T06:54:03.075211+00:00"
      },
      "geometry": {
        "type": "Point",
        "coordinates": [
          NaN,
          NaN
        ]
      }
    }
  ]
}